EUTELSAT 8 WEST B       
1 40875U 15039B   25354.76371788 -.00000042  00000+0  00000+0 0  9993
2 40875   0.0633 358.8474 0004277 271.6888  85.9999  1.00271065 37862
EUTELSAT 9B             
1 41310U 16005A   25354.76701124  .00000085  00000+0  00000+0 0  9999
2 41310   0.0629  71.7045 0004470 203.8934  99.1175  1.00272737 36321
EUTELSAT 65 WEST A      
1 41382U 16014A   25354.75236448 -.00000253  00000+0  00000+0 0  9997
2 41382   0.0530 332.7718 0002123 299.9872  22.4723  1.00273983 35745
EUTELSAT 117 WEST B     
1 41589U 16038B   25354.67065559  .00000011  00000+0  00000+0 0  9997
2 41589   0.0079 146.2318 0000435 177.0977 250.6260  1.00273449 34873
EUTELSAT 172B           
1 42741U 17029B   25354.58537505  .00000018  00000+0  00000+0 0  9991
2 42741   0.0374 127.3356 0000299 281.9552  62.8625  1.00271431 31948
EUTELSAT 7C             
1 44334U 19034B   25354.26730640  .00000072  00000+0  00000+0 0  9999
2 44334   0.0729 179.1336 0003052  73.4447 299.7414  1.00270763  5048
EUTELSAT 5 WEST B       
1 44624U 19067A   25354.76423788 -.00000019  00000+0  00000+0 0  9996
2 44624   0.0670 335.5656 0002996 294.2858  89.8731  1.00271328 22646
EUTELSAT KONNECT        
1 45027U 20005B   25354.26739307  .00000073  00000+0  00000+0 0  9999
2 45027   0.0718  94.8547 0001305 192.1408 265.5721  1.00269751 22549
